ONEWEB-0098             
1 45442U 20020U   24131.18851297 -.00005042  00000+0 -14273-1 0  9995
2 45442  87.8966 173.8518 0001771  87.9362 272.1968 13.11405029201980
ONEWEB-0055             
1 45443U 20020V   24131.17470531 -.00000209  00000+0 -62524-3 0  9997
2 45443  87.8988 173.8489 0002156  98.6614 261.4758 13.11415397201964
ONEWEB-0093             
1 45444U 20020W   24131.14956567 -.00005188  00000+0 -14692-1 0  9995
2 45444  87.8990 173.8324 0001887 104.2001 255.9337 13.11374838202023
ONEWEB-0029             
1 45445U 20020X   24130.63490653  .00001051  00000+0  29299-2 0  9991
2 45445  87.8991 173.9505 0001756  97.6033 262.5295 13.11428210201921
ONEWEB-0068             
1 45446U 20020Y   24130.68607091 -.00002887  00000+0 -81871-2 0  9997
2 45446  87.8988 173.9251 0001984 101.3456 258.7895 13.11392667201874
ONEWEB-0046             
1 45447U 20020Z   24131.14141606 -.00002321  00000+0 -65889-2 0  9999
2 45447  87.8988 173.8477 0001960  97.0703 263.0648 13.11396494201950
ONEWEB-0063             
1 45448U 20020AA  24130.63652597  .00000668  00000+0  18490-2 0  9995
2 45448  87.8989 173.9490 0001896  86.5539 273.5805 13.11424269201960
ONEWEB-0019             
1 45449U 20020AB  24131.14468785 -.00003471  00000+0 -98363-2 0  9991
2 45449  87.9000 173.8511 0002348  95.4466 264.6930 13.11391024201883
